{
  "type": "FeatureCollection",
  "features": [
    {
      "type": "Feature",
      "properties": {
        "kind": "bridge",
        "note": "Official PDF vector 1132"
      },
      "geometry": {
        "type": "LineString",
        "coordinates": [
          [
            114.207848,
            22.418345
          ],
          [
            114.2078468,
            22.4181896
          ]
        ]
      }
    },
    {
      "type": "Feature",
      "properties": {
        "kind": "bridge",
        "note": "Official PDF vector 1133"
      },
      "geometry": {
        "type": "LineString",
        "coordinates": [
          [
            114.2075087,
            22.4180823
          ],
          [
            114.2076598,
            22.4180823
          ]
        ]
      }
    },
    {
      "type": "Feature",
      "properties": {
        "kind": "bridge",
        "note": "Official PDF vector 1134"
      },
      "geometry": {
        "type": "LineString",
        "coordinates": [
          [
            114.2070628,
            22.4186257
          ],
          [
            114.2073086,
            22.4186255
          ],
          [
            114.2073052,
            22.418163
          ]
        ]
      }
    },
    {
      "type": "Feature",
      "properties": {
        "kind": "stairs",
        "note": "Official PDF vector 1135"
      },
      "geometry": {
        "type": "LineString",
        "coordinates": [
          [
            114.207377,
            22.4187135
          ],
          [
            114.2073746,
            22.4186145
          ],
          [
            114.2074317,
            22.4186047
          ],
          [
            114.2074315,
            22.4185808
          ],
          [
            114.2075122,
            22.4185615
          ],
          [
            114.2075115,
            22.4184727
          ],
          [
            114.2074144,
            22.4184727
          ],
          [
            114.2074142,
            22.4184372
          ]
        ]
      }
    },
    {
      "type": "Feature",
      "properties": {
        "kind": "stairs",
        "note": "Official PDF vector 1136"
      },
      "geometry": {
        "type": "LineString",
        "coordinates": [
          [
            114.2082786,
            22.4175462
          ],
          [
            114.2083293,
            22.4175647
          ],
          [
            114.2083946,
            22.417483
          ],
          [
            114.2084665,
            22.4174573
          ]
        ]
      }
    },
    {
      "type": "Feature",
      "properties": {
        "kind": "stairs",
        "note": "Official PDF vector 1137"
      },
      "geometry": {
        "type": "LineString",
        "coordinates": [
          [
            114.2093367,
            22.4194321
          ],
          [
            114.2094199,
            22.4194114
          ],
          [
            114.2094005,
            22.419348
          ],
          [
            114.2095093,
            22.4193386
          ],
          [
            114.2095443,
            22.4192833
          ]
        ]
      }
    },
    {
      "type": "Feature",
      "properties": {
        "kind": "stairs",
        "note": "Official PDF vector 1138"
      },
      "geometry": {
        "type": "LineString",
        "coordinates": [
          [
            114.208219,
            22.420425
          ],
          [
            114.2082522,
            22.4204075
          ],
          [
            114.2082032,
            22.4203105
          ],
          [
            114.2082029,
            22.4202655
          ],
          [
            114.2082507,
            22.4201943
          ],
          [
            114.2081417,
            22.4201442
          ],
          [
            114.2077879,
            22.4202683
          ],
          [
            114.2076597,
            22.4203637
          ],
          [
            114.207576,
            22.4203108
          ],
          [
            114.2075815,
            22.4201767
          ],
          [
            114.2076132,
            22.4201606
          ],
          [
            114.2076019,
            22.4200207
          ],
          [
            114.2076193,
            22.4200031
          ],
          [
            114.2076006,
            22.4199234
          ],
          [
            114.2074717,
            22.4199711
          ],
          [
            114.2074351,
            22.4199718
          ],
          [
            114.2074389,
            22.4198454
          ]
        ]
      }
    },
    {
      "type": "Feature",
      "properties": {
        "kind": "stairs",
        "note": "Official PDF vector 1139"
      },
      "geometry": {
        "type": "LineString",
        "coordinates": [
          [
            114.205184,
            22.4202718
          ],
          [
            114.2050379,
            22.4201436
          ],
          [
            114.2048784,
            22.4201058
          ],
          [
            114.2048776,
            22.4199999
          ],
          [
            114.2042397,
            22.4198627
          ]
        ]
      }
    },
    {
      "type": "Feature",
      "properties": {
        "kind": "bridge",
        "note": "Official PDF vector 1140"
      },
      "geometry": {
        "type": "LineString",
        "coordinates": [
          [
            114.2040828,
            22.4198585
          ],
          [
            114.2040853,
            22.420194
          ]
        ]
      }
    },
    {
      "type": "Feature",
      "properties": {
        "kind": "stairs",
        "note": "Official PDF vector 1141"
      },
      "geometry": {
        "type": "LineString",
        "coordinates": [
          [
            114.2050918,
            22.4228468
          ],
          [
            114.2052134,
            22.4228843
          ],
          [
            114.2052673,
            22.4227657
          ],
          [
            114.2052184,
            22.4227437
          ],
          [
            114.2052918,
            22.4225671
          ],
          [
            114.2052531,
            22.4225544
          ],
          [
            114.2053008,
            22.4224125
          ],
          [
            114.2052518,
            22.422388
          ],
          [
            114.2052967,
            22.4222635
          ],
          [
            114.2052702,
            22.4222317
          ],
          [
            114.205329,
            22.4220865
          ]
        ]
      }
    },
    {
      "type": "Feature",
      "properties": {
        "kind": "stairs",
        "note": "Official PDF vector 1142"
      },
      "geometry": {
        "type": "LineString",
        "coordinates": [
          [
            114.2052071,
            22.4238061
          ],
          [
            114.2052531,
            22.4238467
          ],
          [
            114.2052535,
            22.4239023
          ],
          [
            114.2053426,
            22.4239604
          ],
          [
            114.2053839,
            22.4239356
          ],
          [
            114.2054376,
            22.4239403
          ],
          [
            114.2054383,
            22.4240366
          ],
          [
            114.2054906,
            22.4240496
          ],
          [
            114.2055109,
            22.4240065
          ],
          [
            114.2056141,
            22.4240365
          ],
          [
            114.2056352,
            22.4240064
          ],
          [
            114.2056996,
            22.4240225
          ],
          [
            114.2057327,
            22.4239989
          ],
          [
            114.2057901,
            22.4240064
          ],
          [
            114.2057916,
            22.4239515
          ],
          [
            114.2058466,
            22.4239515
          ]
        ]
      }
    },
    {
      "type": "Feature",
      "properties": {
        "kind": "stairs",
        "note": "Official PDF vector 1143"
      },
      "geometry": {
        "type": "LineString",
        "coordinates": [
          [
            114.2053426,
            22.4239604
          ],
          [
            114.2053093,
            22.4239831
          ],
          [
            114.2052948,
            22.4240367
          ]
        ]
      }
    }
  ]
}
