{
"type": "FeatureCollection",
"name": "boundary_fallback",
"crs": { "type": "name", "properties": { "name": "urn:ogc:def:crs:OGC:1.3:CRS84" } },
"features": [
{ "type": "Feature", "properties": { }, "geometry": { "type": "MultiPolygon", "coordinates": [ [ [ [ 114.2109654, 22.4119805 ], [ 114.2105974, 22.4118499 ], [ 114.2103572, 22.412468 ], [ 114.2103743, 22.412495 ], [ 114.2107787, 22.412398 ], [ 114.2110026, 22.4123483 ], [ 114.2108792, 22.4121967 ], [ 114.2109291, 22.4120684 ], [ 114.2109654, 22.4119805 ] ] ], [ [ [ 114.2070686, 22.4135541 ], [ 114.2073909, 22.4138548 ], [ 114.2081037, 22.4132018 ], [ 114.2077814, 22.4129011 ], [ 114.2070686, 22.4135541 ] ] ], [ [ [ 114.2128587, 22.416511 ], [ 114.2125717, 22.4152018 ], [ 114.2124617, 22.415234 ], [ 114.2124215, 22.4151993 ], [ 114.2123445, 22.4151534 ], [ 114.2122364, 22.4151274 ], [ 114.2121621, 22.4151385 ], [ 114.2120728, 22.4152266 ], [ 114.2120241, 22.4153581 ], [ 114.2119414, 22.4157373 ], [ 114.2118414, 22.4157722 ], [ 114.2123124, 22.4162047 ], [ 114.2128622, 22.4167453 ], [ 114.2128828, 22.4167068 ], [ 114.2128587, 22.416511 ] ] ], [ [ [ 114.208906, 22.4128415 ], [ 114.2086775, 22.4130374 ], [ 114.2084632, 22.4132185 ], [ 114.2076861, 22.4138795 ], [ 114.2074406, 22.4141262 ], [ 114.2072241, 22.4143476 ], [ 114.2070579, 22.4145137 ], [ 114.2068506, 22.4146876 ], [ 114.206568, 22.4149601 ], [ 114.2063634, 22.4151473 ], [ 114.2062371, 22.4152674 ], [ 114.206107, 22.4153766 ], [ 114.2059287, 22.4155328 ], [ 114.2057114, 22.4157485 ], [ 114.2055478, 22.4159171 ], [ 114.2054268, 22.4160438 ], [ 114.2051874, 22.4162672 ], [ 114.2048715, 22.4165201 ], [ 114.2047148, 22.4166341 ], [ 114.2040202, 22.4172716 ], [ 114.2039816, 22.4173202 ], [ 114.2037795, 22.4175748 ], [ 114.2035722, 22.4177426 ], [ 114.2031123, 22.4179704 ], [ 114.2028578, 22.4180644 ], [ 114.2029125, 22.4181271 ], [ 114.2030241, 22.4183383 ], [ 114.204022, 22.4189944 ], [ 114.2039026, 22.4191243 ], [ 114.2038358, 22.4192013 ], [ 114.203815, 22.4192253 ], [ 114.2035379, 22.4191645 ], [ 114.2033442, 22.4191782 ], [ 114.2028758, 22.419171 ], [ 114.2025614, 22.4194885 ], [ 114.2025616, 22.4196744 ], [ 114.2025878, 22.4199701 ], [ 114.2027308, 22.4203735 ], [ 114.2030896, 22.4209926 ], [ 114.2028857, 22.4211027 ], [ 114.2024353, 22.4211954 ], [ 114.2022907, 22.4213608 ], [ 114.2020194, 22.4214373 ], [ 114.202132, 22.4218327 ], [ 114.2017691, 22.4218953 ], [ 114.2016581, 22.421772 ], [ 114.200704, 22.4213777 ], [ 114.2003731, 22.4210724 ], [ 114.199642, 22.4202753 ], [ 114.1989273, 22.420666 ], [ 114.1992714, 22.421305 ], [ 114.1996488, 22.4211863 ], [ 114.2004372, 22.4219078 ], [ 114.2001972, 22.4226039 ], [ 114.2004821, 22.4231141 ], [ 114.2004817, 22.4235921 ], [ 114.2006354, 22.4240586 ], [ 114.2012529, 22.4242165 ], [ 114.2014771, 22.4244397 ], [ 114.2016656, 22.4246873 ], [ 114.2019519, 22.424994 ], [ 114.2021775, 22.4250114 ], [ 114.2023626, 22.425113 ], [ 114.2026514, 22.4251978 ], [ 114.2031165, 22.4252415 ], [ 114.2034647, 22.4252791 ], [ 114.2040033, 22.4256639 ], [ 114.2043101, 22.4258122 ], [ 114.2045198, 22.4258309 ], [ 114.204409, 22.4261477 ], [ 114.2044401, 22.4261493 ], [ 114.2042499, 22.4262814 ], [ 114.2039523, 22.4265689 ], [ 114.2038693, 22.4267979 ], [ 114.2038149, 22.4269849 ], [ 114.2037792, 22.4270308 ], [ 114.2035278, 22.4270207 ], [ 114.2034411, 22.4271954 ], [ 114.2033823, 22.4271769 ], [ 114.2031404, 22.4272489 ], [ 114.2029432, 22.4273076 ], [ 114.2027152, 22.4277359 ], [ 114.2026977, 22.4277688 ], [ 114.2035547, 22.427849 ], [ 114.2035505, 22.4278856 ], [ 114.203696, 22.4279013 ], [ 114.2036701, 22.4281425 ], [ 114.2036453, 22.4281735 ], [ 114.203577, 22.4282036 ], [ 114.2035863, 22.4282237 ], [ 114.2036024, 22.4282438 ], [ 114.2037284, 22.4281515 ], [ 114.2038324, 22.4282506 ], [ 114.2087445, 22.4251871 ], [ 114.2104964, 22.4240379 ], [ 114.2105776, 22.4239816 ], [ 114.2113757, 22.4233631 ], [ 114.2120463, 22.4226383 ], [ 114.2124381, 22.4221395 ], [ 114.2127529, 22.4215266 ], [ 114.212968, 22.4209469 ], [ 114.2131892, 22.4200923 ], [ 114.2132385, 22.4190656 ], [ 114.2132041, 22.4184984 ], [ 114.2127949, 22.4175188 ], [ 114.2127475, 22.4174486 ], [ 114.2127054, 22.4174334 ], [ 114.2126234, 22.4174038 ], [ 114.2122255, 22.4167528 ], [ 114.2122307, 22.4164381 ], [ 114.2113571, 22.4155953 ], [ 114.2108185, 22.4151149 ], [ 114.2106871, 22.4149788 ], [ 114.2105359, 22.4147963 ], [ 114.2104863, 22.4148372 ], [ 114.2103287, 22.4146109 ], [ 114.2101986, 22.4141621 ], [ 114.2100678, 22.4137871 ], [ 114.2099123, 22.4138522 ], [ 114.2098955, 22.4137195 ], [ 114.2098606, 22.4135546 ], [ 114.2098734, 22.4133903 ], [ 114.2098646, 22.4132064 ], [ 114.2098547, 22.4129989 ], [ 114.2098679, 22.4129759 ], [ 114.2098962, 22.4128422 ], [ 114.2098179, 22.4128325 ], [ 114.2098384, 22.4126866 ], [ 114.2099144, 22.4126937 ], [ 114.2099493, 22.4124928 ], [ 114.2097652, 22.4121691 ], [ 114.2095795, 22.4123476 ], [ 114.208906, 22.4128415 ] ], [ [ 114.2045574, 22.4257125 ], [ 114.2043804, 22.4256332 ], [ 114.2041175, 22.4254348 ], [ 114.2036884, 22.425172 ], [ 114.2034845, 22.4250977 ], [ 114.2028569, 22.4250431 ], [ 114.2025189, 22.4249836 ], [ 114.2023204, 22.4248943 ], [ 114.2022078, 22.42481 ], [ 114.2020675, 22.4245777 ], [ 114.2022775, 22.4242894 ], [ 114.2025774, 22.4235505 ], [ 114.2022829, 22.4230447 ], [ 114.2022775, 22.4229158 ], [ 114.2023365, 22.4228364 ], [ 114.2024706, 22.4228166 ], [ 114.202653, 22.4229059 ], [ 114.202888, 22.4233125 ], [ 114.2031466, 22.4233075 ], [ 114.2035462, 22.4229274 ], [ 114.2033343, 22.4223951 ], [ 114.203565, 22.422291 ], [ 114.2037248, 22.4226088 ], [ 114.204021, 22.4226083 ], [ 114.2037385, 22.4237267 ], [ 114.2038531, 22.423918 ], [ 114.2039003, 22.4242671 ], [ 114.2035784, 22.4242819 ], [ 114.2036213, 22.4246811 ], [ 114.2040143, 22.4246722 ], [ 114.2040636, 22.4249538 ], [ 114.2046851, 22.4256786 ], [ 114.2051993, 22.4255935 ], [ 114.2053774, 22.4251676 ], [ 114.2055552, 22.4251274 ], [ 114.2060254, 22.4255591 ], [ 114.2050992, 22.4256927 ], [ 114.2046969, 22.4257274 ], [ 114.2045574, 22.4257125 ] ] ], [ [ [ 114.2130617, 22.4228505 ], [ 114.213101, 22.4228696 ], [ 114.2132758, 22.4229836 ], [ 114.2133992, 22.4230564 ], [ 114.2134892, 22.4231054 ], [ 114.213611, 22.4231432 ], [ 114.2138321, 22.4232017 ], [ 114.2138385, 22.4231797 ], [ 114.2138978, 22.4229516 ], [ 114.2139398, 22.4227398 ], [ 114.2139727, 22.4224813 ], [ 114.2139914, 22.422334 ], [ 114.2140056, 22.4221632 ], [ 114.2140074, 22.4221413 ], [ 114.2140453, 22.4216868 ], [ 114.2140999, 22.4211338 ], [ 114.2141203, 22.4208798 ], [ 114.2141225, 22.420852 ], [ 114.214145, 22.4205932 ], [ 114.2141468, 22.4205721 ], [ 114.2141622, 22.4204234 ], [ 114.2141874, 22.4201803 ], [ 114.2141914, 22.4201636 ], [ 114.2141851, 22.4201279 ], [ 114.2141794, 22.420096 ], [ 114.2141581, 22.4199175 ], [ 114.2141311, 22.4197498 ], [ 114.2140826, 22.4194482 ], [ 114.2140688, 22.4194496 ], [ 114.2140207, 22.4194544 ], [ 114.2139548, 22.419461 ], [ 114.2139588, 22.4194908 ], [ 114.2139896, 22.419488 ], [ 114.2140433, 22.4198304 ], [ 114.2140639, 22.4199436 ], [ 114.214061, 22.4199687 ], [ 114.2140478, 22.420002 ], [ 114.2140294, 22.4199942 ], [ 114.2139966, 22.4200209 ], [ 114.2139544, 22.4200283 ], [ 114.213858, 22.4200169 ], [ 114.2138497, 22.4200642 ], [ 114.2138352, 22.4201669 ], [ 114.2138216, 22.4202428 ], [ 114.2137496, 22.4205891 ], [ 114.213732, 22.4206806 ], [ 114.2137237, 22.4207237 ], [ 114.213678, 22.4209182 ], [ 114.21357, 22.4212684 ], [ 114.2134962, 22.421478 ], [ 114.2134297, 22.4216446 ], [ 114.2133264, 22.4218693 ], [ 114.2132468, 22.4220306 ], [ 114.2131492, 22.4222155 ], [ 114.213088, 22.4223233 ], [ 114.2130099, 22.422444 ], [ 114.2127834, 22.4227863 ], [ 114.2127952, 22.4228187 ], [ 114.2128211, 22.4228348 ], [ 114.2128562, 22.4228366 ], [ 114.21302, 22.4228406 ], [ 114.2130617, 22.4228505 ] ] ], [ [ [ 114.214831, 22.4220652 ], [ 114.2145286, 22.4215989 ], [ 114.214336, 22.4214361 ], [ 114.214245, 22.4223809 ], [ 114.2147094, 22.4224562 ], [ 114.2148963, 22.4223897 ], [ 114.2149419, 22.4223377 ], [ 114.214831, 22.4220652 ] ] ] ] } }
]
}
